[{"OBJECT_NAME":"STARLINK-6077","OBJECT_ID":"2023-046E","EPOCH":"2026-03-08T12:28:55.363872","MEAN_MOTION":15.02540204,"ECCENTRICITY":0.00010363,"INCLINATION":43.0029,"RA_OF_ASC_NODE":113.4559,"ARG_OF_PERICENTER":257.3211,"MEAN_ANOMALY":102.7515,"EPHEMERIS_TYPE":0,"CLASSIFICATION_TYPE":"U","NORAD_CAT_ID":56097,"ELEMENT_SET_NO":999,"REV_AT_EPOCH":16248,"BSTAR":4.7584072e-5,"MEAN_MOTION_DOT":4.39e-6,"MEAN_MOTION_DDOT":0},{"OBJECT_NAME":"IRIDIUM 5","OBJECT_ID":"1997-020D","EPOCH":"2026-03-09T18:04:20.752608","MEAN_MOTION":14.97634702,"ECCENTRICITY":0.00996159,"INCLINATION":86.3893,"RA_OF_ASC_NODE":320.9794,"ARG_OF_PERICENTER":262.9032,"MEAN_ANOMALY":96.0864,"EPHEMERIS_TYPE":0,"CLASSIFICATION_TYPE":"U","NORAD_CAT_ID":24795,"ELEMENT_SET_NO":999,"REV_AT_EPOCH":52516,"BSTAR":0.00037671843,"MEAN_MOTION_DOT":4.91e-5,"MEAN_MOTION_DDOT":0}]
